OBJECT_NAME,OBJECT_ID,EPOCH,MEAN_MOTION,ECCENTRICITY,INCLINATION,RA_OF_ASC_NODE,ARG_OF_PERICENTER,MEAN_ANOMALY,EPHEMERIS_TYPE,CLASSIFICATION_TYPE,NORAD_CAT_ID,ELEMENT_SET_NO,REV_AT_EPOCH,BSTAR,MEAN_MOTION_DOT,MEAN_MOTION_DDOT
ORBCOMM FM06,1997-084G,2026-07-01T04:08:49.092288,14.47598346,.00002771,45.0147,345.3839,178.2222,350.8070,0,U,25118,999,49641,.42294572E-3,.1427E-4,0
ORBCOMM FM04,1998-007C,2026-07-01T11:14:36.710016,14.35765823,.00417251,107.9626,198.8128,300.2978,59.4038,0,U,25159,999,47864,.31498949E-3,.788E-5,0
ORBCOMM FM19,1998-046C,2026-07-01T07:11:41.976096,14.39518323,.0004082,44.9922,176.4773,342.3801,32.4606,0,U,25415,999,45881,.32158E-3,.87E-5,0
ORBCOMM FM20,1998-046D,2026-06-30T23:26:03.474240,14.38081994,.00023909,44.9921,186.0892,296.5806,63.4797,0,U,25416,999,45877,.21362387E-3,.511E-5,0
ORBCOMM FM27,1998-053G,2026-06-30T22:22:27.678720,14.39166005,.0002109,45.0052,270.0688,243.3176,116.7457,0,U,25481,999,45221,.30133E-3,.799E-5,0
ORBCOMM FM32,1999-065C,2026-07-01T01:18:26.551872,14.37149587,.00044376,45.0147,107.5991,117.2967,242.8333,0,U,25982,999,38908,.2954886E-3,.745E-5,0
ORBCOMM FM109,2014-040A,2026-07-01T06:36:13.513824,14.58861032,.0001922,47.0042,24.8798,283.6321,76.4350,0,U,40086,999,63640,.1446E-3,.512E-5,0
ORBCOMM FM110,2015-081D,2026-07-01T13:18:14.733216,14.58902286,.00028509,47.0026,293.5108,159.9180,200.1818,0,U,41182,999,55972,.18303481E-3,.695E-5,0
ORBCOMM FM118,2015-081E,2026-07-01T10:50:24.864288,14.58893122,.00023017,47.0046,294.3303,112.6022,247.5108,0,U,41183,999,55981,.12933093E-3,.44E-5,0
ORBCOMM FM112,2015-081F,2026-07-01T07:39:21.335616,14.58919300,.00041567,46.9971,203.4205,273.2489,86.7921,0,U,41184,999,56101,.13050993E-3,.446E-5,0
ORBCOMM FM113,2015-081G,2026-06-30T11:22:55.178400,14.58869516,.00026286,46.9989,207.7982,270.1275,89.9309,0,U,41185,999,56087,.95535175E-4,.28E-5,0
ORBCOMM FM108,2015-081J,2026-07-01T02:54:44.798112,14.58891278,.00031845,47.0045,116.3155,272.4140,87.6382,0,U,41187,999,56211,.16557127E-3,.612E-5,0
ORBCOMM FM117,2015-081K,2026-06-30T19:30:45.129312,14.58877515,.00036864,47.0006,116.4035,275.6842,84.3624,0,U,41188,999,56211,.13355418E-3,.46E-5,0
ORBCOMM FM116,2015-081L,2026-07-01T11:28:30.790560,14.58897315,.00009405,47.0005,203.0491,184.3505,175.7373,0,U,41189,999,56102,.10040343E-3,.304E-5,0
