ORBCOMM FM06            
1 25118U 97084G   26182.17279042  .00001427  00000+0  42295-3 0  9994
2 25118  45.0147 345.3839 0000277 178.2222 350.8070 14.47598346496413
ORBCOMM FM04            
1 25159U 98007C   26182.46848044  .00000788  00000+0  31499-3 0  9994
2 25159 107.9626 198.8128 0041725 300.2978  59.4038 14.35765823478642
ORBCOMM FM19            
1 25415U 98046C   26182.29979139  .00000870  00000+0  32158-3 0  9998
2 25415  44.9922 176.4773 0004082 342.3801  32.4606 14.39518323458815
ORBCOMM FM20            
1 25416U 98046D   26181.97642910  .00000511  00000+0  21362-3 0  9994
2 25416  44.9921 186.0892 0002390 296.5806  63.4797 14.38081994458777
ORBCOMM FM27            
1 25481U 98053G   26181.93226480  .00000799  00000+0  30133-3 0  9994
2 25481  45.0052 270.0688 0002109 243.3176 116.7457 14.39166005452217
ORBCOMM FM32            
1 25982U 99065C   26182.05447398  .00000745  00000+0  29549-3 0  9991
2 25982  45.0147 107.5991 0004437 117.2967 242.8333 14.37149587389084
ORBCOMM FM109           
1 40086U 14040A   26182.27515641  .00000512  00000+0  14460-3 0  9992
2 40086  47.0042  24.8798 0001922 283.6321  76.4350 14.58861032636406
ORBCOMM FM110           
1 41182U 15081D   26182.55433719  .00000695  00000+0  18303-3 0  9994
2 41182  47.0026 293.5108 0002850 159.9180 200.1818 14.58902286559726
ORBCOMM FM118           
1 41183U 15081E   26182.45167667  .00000440  00000+0  12933-3 0  9991
2 41183  47.0046 294.3303 0002301 112.6022 247.5108 14.58893122559812
ORBCOMM FM112           
1 41184U 15081F   26182.31899694  .00000446  00000+0  13051-3 0  9997
2 41184  46.9971 203.4205 0004156 273.2489  86.7921 14.58919300561019
ORBCOMM FM113           
1 41185U 15081G   26181.47424975  .00000280  00000+0  95535-4 0  9994
2 41185  46.9989 207.7982 0002628 270.1275  89.9309 14.58869516560870
ORBCOMM FM108           
1 41187U 15081J   26182.12135183  .00000612  00000+0  16557-3 0  9994
2 41187  47.0045 116.3155 0003184 272.4140  87.6382 14.58891278562113
ORBCOMM FM117           
1 41188U 15081K   26181.81302233  .00000460  00000+0  13355-3 0  9996
2 41188  47.0006 116.4035 0003686 275.6842  84.3624 14.58877515562111
ORBCOMM FM116           
1 41189U 15081L   26182.47813415  .00000304  00000+0  10040-3 0  9994
2 41189  47.0005 203.0491 0000940 184.3505 175.7373 14.58897315561027
